{
  "type": "FeatureCollection",
  "name": "tunnels",
  "crs": {
    "type": "name",
    "properties": {
      "name": "urn:ogc:def:crs:OGC:1.3:CRS84"
    }
  },
  "features": [
    {
      "type": "Feature",
      "geometry": {
        "type": "LineString",
        "coordinates": [
          [
            96.612557,
            41.714873,
            1670.0
          ],
          [
            96.606789,
            41.719716,
            1670.0
          ]
        ]
      },
      "properties": {
        "name": "1105进风巷",
        "category": "tunnel",
        "point_count": 2,
        "z_min": 1670.0,
        "z_max": 1670.0
      }
    },
    {
      "type": "Feature",
      "geometry": {
        "type": "LineString",
        "coordinates": [
          [
            96.609368,
            41.712804,
            1628.0
          ],
          [
            96.6093,
            41.712878,
            1628.0
          ],
          [
            96.608933,
            41.713283,
            1623.0
          ],
          [
            96.608928,
            41.713372,
            1623.0
          ],
          [
            96.608957,
            41.713413,
            1623.0
          ],
          [
            96.609011,
            41.71345,
            1623.0
          ],
          [
            96.609408,
            41.713632,
            1623.0
          ],
          [
            96.609479,
            41.713625,
            1623.0
          ],
          [
            96.609534,
            41.713603,
            1623.0
          ],
          [
            96.609605,
            41.713539,
            1623.0
          ],
          [
            96.609652,
            41.713485,
            1623.0
          ]
        ]
      },
      "properties": {
        "name": "主水仓",
        "category": "tunnel",
        "point_count": 11,
        "z_min": 1623.0,
        "z_max": 1628.0
      }
    },
    {
      "type": "Feature",
      "geometry": {
        "type": "LineString",
        "coordinates": [
          [
            96.609995,
            41.713629,
            1630.0
          ],
          [
            96.610341,
            41.713808,
            1637.0
          ],
          [
            96.610654,
            41.713469,
            1637.0
          ]
        ]
      },
      "properties": {
        "name": "主排水泵房变电所",
        "category": "tunnel",
        "point_count": 3,
        "z_min": 1630.0,
        "z_max": 1637.0
      }
    },
    {
      "type": "Feature",
      "geometry": {
        "type": "LineString",
        "coordinates": [
          [
            96.613373,
            41.713781,
            1670.0
          ],
          [
            96.61297,
            41.714119,
            1672.0
          ],
          [
            96.612834,
            41.714235,
            1672.0
          ],
          [
            96.613001,
            41.714499,
            1670.0
          ]
        ]
      },
      "properties": {
        "name": "中部通风联络巷",
        "category": "tunnel",
        "point_count": 4,
        "z_min": 1670.0,
        "z_max": 1672.0
      }
    },
    {
      "type": "Feature",
      "geometry": {
        "type": "LineString",
        "coordinates": [
          [
            96.617687,
            41.71711,
            1738.4
          ],
          [
            96.617053,
            41.716776,
            1738.0
          ],
          [
            96.615733,
            41.716094,
            1721.0
          ],
          [
            96.615161,
            41.715798,
            1711.0
          ],
          [
            96.614747,
            41.715584,
            1711.0
          ],
          [
            96.613755,
            41.715071,
            1680.0
          ],
          [
            96.613249,
            41.71481,
            1671.0
          ],
          [
            96.612189,
            41.714262,
            1665.0
          ],
          [
            96.610654,
            41.713469,
            1637.0
          ],
          [
            96.609812,
            41.713035,
            1630.0
          ],
          [
            96.609368,
            41.712804,
            1628.0
          ]
        ]
      },
      "properties": {
        "name": "中央辅运大巷",
        "category": "tunnel",
        "point_count": 11,
        "z_min": 1628.0,
        "z_max": 1738.4
      }
    },
    {
      "type": "Feature",
      "geometry": {
        "type": "LineString",
        "coordinates": [
          [
            96.615161,
            41.714705,
            1718.0
          ],
          [
            96.614758,
            41.715043,
            1710.0
          ],
          [
            96.61456,
            41.715209,
            1690.0
          ],
          [
            96.614199,
            41.715118,
            1690.0
          ]
        ]
      },
      "properties": {
        "name": "单轨吊充电硐室",
        "category": "tunnel",
        "point_count": 4,
        "z_min": 1690.0,
        "z_max": 1718.0
      }
    },
    {
      "type": "Feature",
      "geometry": {
        "type": "LineString",
        "coordinates": [
          [
            96.61976,
            41.717628,
            1733.0
          ],
          [
            96.619065,
            41.717822,
            1733.3
          ]
        ]
      },
      "properties": {
        "name": "主斜井机尾联络巷",
        "category": "tunnel",
        "point_count": 2,
        "z_min": 1733.0,
        "z_max": 1733.3
      }
    },
    {
      "type": "Feature",
      "geometry": {
        "type": "LineString",
        "coordinates": [
          [
            96.626836,
            41.717504,
            1931.3
          ],
          [
            96.623747,
            41.71752,
            1831.3
          ],
          [
            96.620641,
            41.717537,
            1740.6
          ]
        ]
      },
      "properties": {
        "name": "回风斜井",
        "category": "tunnel",
        "point_count": 3,
        "z_min": 1740.6,
        "z_max": 1931.3
      }
    },
    {
      "type": "Feature",
      "geometry": {
        "type": "LineString",
        "coordinates": [
          [
            96.620101,
            41.717532,
            1733.2
          ],
          [
            96.619468,
            41.717201,
            1731.0
          ],
          [
            96.619048,
            41.717259,
            1727.5
          ]
        ]
      },
      "properties": {
        "name": "架空乘人器硐室",
        "category": "tunnel",
        "point_count": 3,
        "z_min": 1727.5,
        "z_max": 1733.2
      }
    },
    {
      "type": "Feature",
      "geometry": {
        "type": "LineString",
        "coordinates": [
          [
            96.619065,
            41.717822,
            1733.3
          ],
          [
            96.617687,
            41.71711,
            1738.4
          ]
        ]
      },
      "properties": {
        "name": "辅运联络巷",
        "category": "tunnel",
        "point_count": 2,
        "z_min": 1733.3,
        "z_max": 1738.4
      }
    },
    {
      "type": "Feature",
      "geometry": {
        "type": "LineString",
        "coordinates": [
          [
            96.610648,
            41.71292,
            1652.5
          ],
          [
            96.610306,
            41.71329,
            1634.0
          ],
          [
            96.609995,
            41.713629,
            1630.0
          ]
        ]
      },
      "properties": {
        "name": "管子道",
        "category": "tunnel",
        "point_count": 3,
        "z_min": 1630.0,
        "z_max": 1652.5
      }
    },
    {
      "type": "Feature",
      "geometry": {
        "type": "LineString",
        "coordinates": [
          [
            96.617457,
            41.716437,
            1721.6
          ],
          [
            96.617185,
            41.716666,
            1721.6
          ],
          [
            96.616655,
            41.717107,
            1710.0
          ],
          [
            96.615443,
            41.718124,
            1710.0
          ]
        ]
      },
      "properties": {
        "name": "机头硐室",
        "category": "tunnel",
        "point_count": 4,
        "z_min": 1710.0,
        "z_max": 1721.6
      }
    },
    {
      "type": "Feature",
      "geometry": {
        "type": "LineString",
        "coordinates": [
          [
            96.620804,
            41.717337,
            1735.6
          ],
          [
            96.620101,
            41.717532,
            1733.2
          ],
          [
            96.61976,
            41.717628,
            1733.0
          ]
        ]
      },
      "properties": {
        "name": "胶带石门",
        "category": "tunnel",
        "point_count": 3,
        "z_min": 1733.0,
        "z_max": 1735.6
      }
    },
    {
      "type": "Feature",
      "geometry": {
        "type": "LineString",
        "coordinates": [
          [
            96.612155,
            41.713698,
            1663.0
          ],
          [
            96.612189,
            41.714262,
            1665.0
          ]
        ]
      },
      "properties": {
        "name": "永久避难硐室",
        "category": "tunnel",
        "point_count": 2,
        "z_min": 1663.0,
        "z_max": 1665.0
      }
    },
    {
      "type": "Feature",
      "geometry": {
        "type": "LineString",
        "coordinates": [
          [
            96.614466,
            41.714892,
            1690.0
          ],
          [
            96.614199,
            41.715118,
            1690.0
          ],
          [
            96.614062,
            41.715231,
            1680.0
          ],
          [
            96.613513,
            41.715693,
            1685.0
          ],
          [
            96.608292,
            41.720075,
            1685.0
          ]
        ]
      },
      "properties": {
        "name": "1105回风巷",
        "category": "tunnel",
        "point_count": 5,
        "z_min": 1680.0,
        "z_max": 1690.0
      }
    },
    {
      "type": "Feature",
      "geometry": {
        "type": "LineString",
        "coordinates": [
          [
            96.609812,
            41.713035,
            1630.0
          ],
          [
            96.609544,
            41.713327,
            1630.0
          ],
          [
            96.609501,
            41.713373,
            1630.0
          ],
          [
            96.609672,
            41.713463,
            1630.0
          ],
          [
            96.609872,
            41.713566,
            1630.0
          ],
          [
            96.609995,
            41.713629,
            1630.0
          ]
        ]
      },
      "properties": {
        "name": "主排水泵房",
        "category": "tunnel",
        "point_count": 6,
        "z_min": 1630.0,
        "z_max": 1630.0
      }
    },
    {
      "type": "Feature",
      "geometry": {
        "type": "LineString",
        "coordinates": [
          [
            96.61976,
            41.717628,
            1733.0
          ],
          [
            96.619048,
            41.717259,
            1727.5
          ],
          [
            96.618375,
            41.716912,
            1721.9
          ],
          [
            96.617757,
            41.716592,
            1721.7
          ],
          [
            96.617457,
            41.716437,
            1721.6
          ],
          [
            96.616559,
            41.715973,
            1721.5
          ],
          [
            96.616259,
            41.715819,
            1721.4
          ],
          [
            96.615787,
            41.715575,
            1721.0
          ],
          [
            96.615217,
            41.715281,
            1712.0
          ],
          [
            96.614758,
            41.715043,
            1710.0
          ],
          [
            96.614466,
            41.714892,
            1690.0
          ],
          [
            96.613811,
            41.714553,
            1680.0
          ],
          [
            96.613268,
            41.714274,
            1670.0
          ],
          [
            96.612155,
            41.713698,
            1663.0
          ],
          [
            96.610648,
            41.71292,
            1652.5
          ],
          [
            96.609709,
            41.712433,
            1642.0
          ],
          [
            96.60951,
            41.712331,
            1641.0
          ],
          [
            96.609215,
            41.712179,
            1638.9
          ]
        ]
      },
      "properties": {
        "name": "中央胶带大巷",
        "category": "tunnel",
        "point_count": 18,
        "z_min": 1638.9,
        "z_max": 1733.0
      }
    },
    {
      "type": "Feature",
      "geometry": {
        "type": "LineString",
        "coordinates": [
          [
            96.615844,
            41.715058,
            1730.0
          ],
          [
            96.615733,
            41.716094,
            1721.0
          ]
        ]
      },
      "properties": {
        "name": "单轨吊充电检修硐室",
        "category": "tunnel",
        "point_count": 2,
        "z_min": 1721.0,
        "z_max": 1730.0
      }
    },
    {
      "type": "Feature",
      "geometry": {
        "type": "LineString",
        "coordinates": [
          [
            96.615274,
            41.714762,
            1718.0
          ],
          [
            96.615217,
            41.715281,
            1712.0
          ],
          [
            96.615161,
            41.715798,
            1711.0
          ]
        ]
      },
      "properties": {
        "name": "一采区变电所",
        "category": "tunnel",
        "point_count": 3,
        "z_min": 1711.0,
        "z_max": 1718.0
      }
    },
    {
      "type": "Feature",
      "geometry": {
        "type": "LineString",
        "coordinates": [
          [
            96.6093,
            41.712878,
            1628.0
          ],
          [
            96.608829,
            41.712948,
            1626.0
          ],
          [
            96.608777,
            41.712983,
            1626.0
          ],
          [
            96.608433,
            41.713369,
            1623.0
          ],
          [
            96.608472,
            41.713495,
            1623.0
          ],
          [
            96.609329,
            41.713941,
            1623.0
          ],
          [
            96.609394,
            41.713956,
            1623.0
          ],
          [
            96.609465,
            41.713953,
            1623.0
          ],
          [
            96.609525,
            41.71393,
            1623.0
          ],
          [
            96.609575,
            41.713887,
            1623.0
          ],
          [
            96.60985,
            41.713587,
            1623.0
          ]
        ]
      },
      "properties": {
        "name": "主水仓",
        "category": "tunnel",
        "point_count": 11,
        "z_min": 1623.0,
        "z_max": 1628.0
      }
    },
    {
      "type": "Feature",
      "geometry": {
        "type": "LineString",
        "coordinates": [
          [
            96.628657,
            41.715147,
            1931.3
          ],
          [
            96.624756,
            41.716233,
            1831.3
          ],
          [
            96.620804,
            41.717337,
            1735.6
          ]
        ]
      },
      "properties": {
        "name": "主斜井",
        "category": "tunnel",
        "point_count": 3,
        "z_min": 1735.6,
        "z_max": 1931.3
      }
    },
    {
      "type": "Feature",
      "geometry": {
        "type": "LineString",
        "coordinates": [
          [
            96.626719,
            41.714587,
            1932.3
          ],
          [
            96.624794,
            41.715132,
            1889.0
          ],
          [
            96.622808,
            41.715677,
            1845.5
          ],
          [
            96.619063,
            41.716721,
            1750.1
          ],
          [
            96.618555,
            41.716862,
            1738.9
          ]
        ]
      },
      "properties": {
        "name": "副斜井",
        "category": "tunnel",
        "point_count": 5,
        "z_min": 1738.9,
        "z_max": 1932.3
      }
    },
    {
      "type": "Feature",
      "geometry": {
        "type": "LineString",
        "coordinates": [
          [
            96.618372,
            41.716365,
            1738.4
          ],
          [
            96.618159,
            41.716254,
            1735.4
          ],
          [
            96.616962,
            41.715635,
            1734.0
          ],
          [
            96.615844,
            41.715058,
            1730.0
          ],
          [
            96.615274,
            41.714762,
            1718.0
          ],
          [
            96.615161,
            41.714705,
            1718.0
          ],
          [
            96.613373,
            41.713781,
            1670.0
          ],
          [
            96.60985,
            41.711962,
            1641.0
          ]
        ]
      },
      "properties": {
        "name": "中央回风大巷",
        "category": "tunnel",
        "point_count": 8,
        "z_min": 1641.0,
        "z_max": 1738.4
      }
    },
    {
      "type": "Feature",
      "geometry": {
        "type": "LineString",
        "coordinates": [
          [
            96.60985,
            41.711962,
            1641.0
          ],
          [
            96.60951,
            41.712331,
            1641.0
          ]
        ]
      },
      "properties": {
        "name": "大巷联络巷",
        "category": "tunnel",
        "point_count": 2,
        "z_min": 1641.0,
        "z_max": 1641.0
      }
    },
    {
      "type": "Feature",
      "geometry": {
        "type": "LineString",
        "coordinates": [
          [
            96.606789,
            41.719716,
            1670.0
          ],
          [
            96.608292,
            41.720075,
            1685.0
          ]
        ]
      },
      "properties": {
        "name": "1015工作面停采线",
        "category": "tunnel",
        "point_count": 2,
        "z_min": 1670.0,
        "z_max": 1685.0
      }
    },
    {
      "type": "Feature",
      "geometry": {
        "type": "LineString",
        "coordinates": [
          [
            96.608292,
            41.720075,
            1685.0
          ],
          [
            96.600994,
            41.726204,
            1690.0
          ],
          [
            96.600647,
            41.726495,
            1690.0
          ],
          [
            96.594247,
            41.73187,
            1690.0
          ]
        ]
      },
      "properties": {
        "name": "1105回风顺槽",
        "category": "tunnel",
        "point_count": 4,
        "z_min": 1685.0,
        "z_max": 1690.0
      }
    },
    {
      "type": "Feature",
      "geometry": {
        "type": "LineString",
        "coordinates": [
          [
            96.606789,
            41.719716,
            1670.0
          ],
          [
            96.599572,
            41.725779,
            1679.8
          ],
          [
            96.599494,
            41.725845,
            1679.9
          ],
          [
            96.593173,
            41.731154,
            1680.0
          ]
        ]
      },
      "properties": {
        "name": "1105胶带顺槽",
        "category": "tunnel",
        "point_count": 4,
        "z_min": 1670.0,
        "z_max": 1680.0
      }
    },
    {
      "type": "Feature",
      "geometry": {
        "type": "LineString",
        "coordinates": [
          [
            96.593173,
            41.731154,
            1680.0
          ],
          [
            96.594247,
            41.73187,
            1690.0
          ]
        ]
      },
      "properties": {
        "name": "1015工作面切眼",
        "category": "tunnel",
        "point_count": 2,
        "z_min": 1680.0,
        "z_max": 1690.0
      }
    },
    {
      "type": "Feature",
      "geometry": {
        "type": "LineString",
        "coordinates": [
          [
            96.599572,
            41.725779,
            1679.8
          ],
          [
            96.600647,
            41.726495,
            1690.0
          ]
        ]
      },
      "properties": {
        "name": "1015工作面巷道",
        "category": "tunnel",
        "point_count": 2,
        "z_min": 1679.8,
        "z_max": 1690.0
      }
    },
    {
      "type": "Feature",
      "geometry": {
        "type": "LineString",
        "coordinates": [
          [
            96.606789,
            41.719716,
            1670.0
          ],
          [
            96.608292,
            41.720075,
            1685.0
          ]
        ]
      },
      "properties": {
        "name": "1105工作面",
        "category": "tunnel",
        "point_count": 2,
        "z_min": 1670.0,
        "z_max": 1685.0
      }
    },
    {
      "type": "Feature",
      "geometry": {
        "type": "LineString",
        "coordinates": [
          [
            96.608292,
            41.720075,
            1685.0
          ],
          [
            96.600994,
            41.726204,
            1690.0
          ],
          [
            96.600647,
            41.726495,
            1690.0
          ],
          [
            96.594247,
            41.73187,
            1690.0
          ]
        ]
      },
      "properties": {
        "name": "1105工作面",
        "category": "tunnel",
        "point_count": 4,
        "z_min": 1685.0,
        "z_max": 1690.0
      }
    },
    {
      "type": "Feature",
      "geometry": {
        "type": "LineString",
        "coordinates": [
          [
            96.606789,
            41.719716,
            1670.0
          ],
          [
            96.599572,
            41.725779,
            1679.8
          ],
          [
            96.599494,
            41.725845,
            1679.9
          ],
          [
            96.593173,
            41.731154,
            1680.0
          ]
        ]
      },
      "properties": {
        "name": "1105工作面",
        "category": "tunnel",
        "point_count": 4,
        "z_min": 1670.0,
        "z_max": 1680.0
      }
    },
    {
      "type": "Feature",
      "geometry": {
        "type": "LineString",
        "coordinates": [
          [
            96.593173,
            41.731154,
            1680.0
          ],
          [
            96.594247,
            41.73187,
            1690.0
          ]
        ]
      },
      "properties": {
        "name": "1105工作面",
        "category": "tunnel",
        "point_count": 2,
        "z_min": 1680.0,
        "z_max": 1690.0
      }
    },
    {
      "type": "Feature",
      "geometry": {
        "type": "LineString",
        "coordinates": [
          [
            96.599572,
            41.725779,
            1679.8
          ],
          [
            96.600647,
            41.726495,
            1690.0
          ]
        ]
      },
      "properties": {
        "name": "1105工作面",
        "category": "tunnel",
        "point_count": 2,
        "z_min": 1679.8,
        "z_max": 1690.0
      }
    }
  ]
}